ONEWEB-0258             
1 48976U 21060K   24281.47705347 -.00002138  00000+0 -56268-2 0  9991
2 48976  87.9161 351.8326 0001948  90.7868 269.3486 13.16608154159598
ONEWEB-0259             
1 48977U 21060L   24281.47073440  .00000051  00000+0  98826-4 0  9992
2 48977  87.9160 351.8186 0002024  96.7052 263.4309 13.16595833158349
ONEWEB-0260             
1 48978U 21060M   24281.23402160  .00000090  00000+0  20295-3 0  9999
2 48978  87.9161 351.8945 0001702 118.3873 241.7430 13.16594151158298
ONEWEB-0261             
1 48979U 21060N   24281.43114100  .00000159  00000+0  38345-3 0  9997
2 48979  87.9162 351.8524 0002307 108.4649 251.6733 13.16597663158372
ONEWEB-0262             
1 48980U 21060P   24281.26016122  .00000183  00000+0  44582-3 0  9992
2 48980  87.9162 351.8472 0002230  95.9424 264.1961 13.16595327158313
ONEWEB-0263             
1 48981U 21060Q   24281.21582566  .00000138  00000+0  32737-3 0  9997
2 48981  87.9164 351.8758 0002308 102.4045 257.7344 13.16596740158270
ONEWEB-0264             
1 48982U 21060R   24281.48100288 -.00000192  00000+0 -53678-3 0  9993
2 48982  87.9163 351.8334 0001856  99.5056 260.6285 13.16594158158318
ONEWEB-0266             
1 48984U 21060T   24281.50238535  .00000212  00000+0  52029-3 0  9995
2 48984  87.9160 351.8044 0001789  95.1977 264.9358 13.16599501158308
